YAM-10                  
1 64580U 25135BE  26198.26049620  .00001019  00000+0  10631-3 0  9998
2 64580  97.7754 311.6998 0001864 235.1080 124.9963 14.91904896 58344
YAM-11                  
1 68991U 26100M   26197.72565280  .00000818  00000+0  89195-4 0  9994
2 68991  97.7423  94.4683 0009640 356.1455   3.9688 14.90580350 11099
YAM-16                  
1 68992U 26100N   26198.14004756  .00000795  00000+0  84921-4 0  9994
2 68992  97.7333  95.0039 0004640  57.9129 302.2540 14.91518411 11161
YAM-13                  
1 68993U 26100P   26197.94974617  .00000671  00000+0  74441-4 0  9993
2 68993  97.7334  94.7916 0009438 352.8717   7.2365 14.90413395 11131
YAM-15                  
1 68997U 26100T   26198.13734732  .00000741  00000+0  81228-4 0  9990
2 68997  97.7325  95.0005 0009187   6.0714 354.0614 14.90655958 11160
YAM-12                  
1 69003U 26100Z   26197.70896052  .00002058  00000+0  21645-3 0  9994
2 69003  97.7364  94.4683 0009805 347.1910  12.9057 14.90461720 11085
YAM-14                  
1 69008U 26100AE  26197.97054535  .00000640  00000+0  71448-4 0  9992
2 69008  97.7375  94.7442 0005935  23.7054 336.4436 14.90353088 11121
